CSS (TIANHE)            
1 48274U 21035A   24174.85544893  .00034949  00000+0  38513-3 0  9991
2 48274  41.4688  48.5534 0004900 265.5967  94.4313 15.62383121179980
